{"type": "FeatureCollection", "features": [{"type": "Feature", "properties": {"norad_id": 28890, "name": "BEIJING 1", "group": "dmc", "lat": -7.919738620310875, "lon": 114.61068586510022, "alt_km": 695.7432441985002, "timestamp": "2025-12-11T22:43:46.938339+00:00", "meta": {"OBJECT_NAME": "BEIJING 1", "OBJECT_ID": "2005-043A", "EPOCH": "2025-12-11T14:33:40.025664", "MEAN_MOTION": 14.63365076, "ECCENTRICITY": 0.0015263, "INCLINATION": 98.2655, "RA_OF_ASC_NODE": 113.1109, "ARG_OF_PERICENTER": 144.5448, "MEAN_ANOMALY": 215.6772, "EPHEMERIS_TYPE": 0, "CLASSIFICATION_TYPE": "U", "NORAD_CAT_ID": 28890, "ELEMENT_SET_NO": 999, "REV_AT_EPOCH": 7321, "BSTAR": 0.00017122102, "MEAN_MOTION_DOT": 8.37e-06, "MEAN_MOTION_DDOT": 0}, "tle": {"line1": "1 28890U 05043A   25345.60671326  .00000837  00000+0  17122-3 0  9992", "line2": "2 28890  98.2655 113.1109 0015263 144.5448 215.6772 14.63365076 73211"}}, "geometry": {"type": "Point", "coordinates": [114.61068586510022, -7.919738620310875]}}, {"type": "Feature", "properties": {"norad_id": 33320, "name": "HUANJING 1A (HJ-1A)", "group": "dmc", "lat": -37.38423081075226, "lon": -19.822487860798585, "alt_km": 621.292102906029, "timestamp": "2025-12-11T22:43:46.938381+00:00", "meta": {"OBJECT_NAME": "HUANJING 1A (HJ-1A)", "OBJECT_ID": "2008-041A", "EPOCH": "2025-12-11T14:48:17.136864", "MEAN_MOTION": 14.8338834, "ECCENTRICITY": 0.00203104, "INCLINATION": 97.6547, "RA_OF_ASC_NODE": 333.9625, "ARG_OF_PERICENTER": 38.13, "MEAN_ANOMALY": 322.1347, "EPHEMERIS_TYPE": 0, "CLASSIFICATION_TYPE": "U", "NORAD_CAT_ID": 33320, "ELEMENT_SET_NO": 999, "REV_AT_EPOCH": 93059, "BSTAR": 0.00024308301, "MEAN_MOTION_DOT": 1.95e-05, "MEAN_MOTION_DDOT": 0}, "tle": {"line1": "1 33320U 08041A   25345.61686501  .00001950  00000+0  24308-3 0  9990", "line2": "2 33320  97.6547 333.9625 0020310  38.1300 322.1347 14.83388340930593"}}, "geometry": {"type": "Point", "coordinates": [-19.822487860798585, -37.38423081075226]}}, {"type": "Feature", "properties": {"norad_id": 33321, "name": "HUANJING 1B (HJ-1B)", "group": "dmc", "lat": -5.763421341959127, "lon": 157.20105865013423, "alt_km": 632.1920883886878, "timestamp": "2025-12-11T22:43:46.938397+00:00", "meta": {"OBJECT_NAME": "HUANJING 1B (HJ-1B)", "OBJECT_ID": "2008-041B", "EPOCH": "2025-12-11T15:25:13.879200", "MEAN_MOTION": 14.82813317, "ECCENTRICITY": 0.00382205, "INCLINATION": 97.6404, "RA_OF_ASC_NODE": 337.6863, "ARG_OF_PERICENTER": 79.1227, "MEAN_ANOMALY": 281.4285, "EPHEMERIS_TYPE": 0, "CLASSIFICATION_TYPE": "U", "NORAD_CAT_ID": 33321, "ELEMENT_SET_NO": 999, "REV_AT_EPOCH": 93061, "BSTAR": 9.7188399e-05, "MEAN_MOTION_DOT": 7.45e-06, "MEAN_MOTION_DDOT": 0}, "tle": {"line1": "1 33321U 08041B   25345.64252175  .00000745  00000+0  97188-4 0  9998", "line2": "2 33321  97.6404 337.6863 0038220  79.1227 281.4285 14.82813317930610"}}, "geometry": {"type": "Point", "coordinates": [157.20105865013423, -5.763421341959127]}}, {"type": "Feature", "properties": {"norad_id": 33446, "name": "YAOGAN-4", "group": "dmc", "lat": 79.16261870026091, "lon": 142.68858110091156, "alt_km": 619.7983717435045, "timestamp": "2025-12-11T22:43:46.938411+00:00", "meta": {"OBJECT_NAME": "YAOGAN-4", "OBJECT_ID": "2008-061A", "EPOCH": "2025-12-11T12:34:26.703552", "MEAN_MOTION": 14.82676279, "ECCENTRICITY": 0.00136536, "INCLINATION": 97.9178, "RA_OF_ASC_NODE": 275.6352, "ARG_OF_PERICENTER": 327.7315, "MEAN_ANOMALY": 32.3062, "EPHEMERIS_TYPE": 0, "CLASSIFICATION_TYPE": "U", "NORAD_CAT_ID": 33446, "ELEMENT_SET_NO": 999, "REV_AT_EPOCH": 91785, "BSTAR": 0.00029221942, "MEAN_MOTION_DOT": 2.306e-05, "MEAN_MOTION_DDOT": 0}, "tle": {"line1": "1 33446U 08061A   25345.52392018  .00002306  00000+0  29222-3 0  9994", "line2": "2 33446  97.9178 275.6352 0013653 327.7315  32.3062 14.82676279917857"}}, "geometry": {"type": "Point", "coordinates": [142.68858110091156, 79.16261870026091]}}, {"type": "Feature", "properties": {"norad_id": 35681, "name": "DEIMOS-1", "group": "dmc", "lat": -67.87698893599311, "lon": -52.89251562173471, "alt_km": 654.4523026272354, "timestamp": "2025-12-11T22:43:46.938423+00:00", "meta": {"OBJECT_NAME": "DEIMOS-1", "OBJECT_ID": "2009-041A", "EPOCH": "2025-12-11T15:05:27.271104", "MEAN_MOTION": 14.74951002, "ECCENTRICITY": 0.00027329, "INCLINATION": 97.7151, "RA_OF_ASC_NODE": 146.2837, "ARG_OF_PERICENTER": 81.6258, "MEAN_ANOMALY": 278.5262, "EPHEMERIS_TYPE": 0, "CLASSIFICATION_TYPE": "U", "NORAD_CAT_ID": 35681, "ELEMENT_SET_NO": 999, "REV_AT_EPOCH": 87923, "BSTAR": 0.00022273716, "MEAN_MOTION_DOT": 1.449e-05, "MEAN_MOTION_DDOT": 0}, "tle": {"line1": "1 35681U 09041A   25345.62878786  .00001449  00000+0  22274-3 0  9995", "line2": "2 35681  97.7151 146.2837 0002732  81.6258 278.5262 14.74951002879234"}}, "geometry": {"type": "Point", "coordinates": [-52.89251562173471, -67.87698893599311]}}, {"type": "Feature", "properties": {"norad_id": 35683, "name": "UK-DMC 2", "group": "dmc", "lat": -79.03221587148809, "lon": -104.56416560616466, "alt_km": 651.5326390788669, "timestamp": "2025-12-11T22:43:46.938436+00:00", "meta": {"OBJECT_NAME": "UK-DMC 2", "OBJECT_ID": "2009-041C", "EPOCH": "2025-12-11T15:02:05.482176", "MEAN_MOTION": 14.7562036, "ECCENTRICITY": 0.00014833, "INCLINATION": 97.8562, "RA_OF_ASC_NODE": 120.5608, "ARG_OF_PERICENTER": 97.9313, "MEAN_ANOMALY": 262.2065, "EPHEMERIS_TYPE": 0, "CLASSIFICATION_TYPE": "U", "NORAD_CAT_ID": 35683, "ELEMENT_SET_NO": 999, "REV_AT_EPOCH": 87890, "BSTAR": 0.00036506386, "MEAN_MOTION_DOT": 2.442e-05, "MEAN_MOTION_DDOT": 0}, "tle": {"line1": "1 35683U 09041C   25345.62645234  .00002442  00000+0  36506-3 0  9994", "line2": "2 35683  97.8562 120.5608 0001483  97.9313 262.2065 14.75620360878903"}}, "geometry": {"type": "Point", "coordinates": [-104.56416560616466, -79.03221587148809]}}, {"type": "Feature", "properties": {"norad_id": 40715, "name": "DMC3-FM1", "group": "dmc", "lat": -74.73160615558395, "lon": -117.25360660614547, "alt_km": 617.0640355944233, "timestamp": "2025-12-11T22:43:46.938449+00:00", "meta": {"OBJECT_NAME": "DMC3-FM1", "OBJECT_ID": "2015-032A", "EPOCH": "2025-12-11T14:59:28.027680", "MEAN_MOTION": 14.85436421, "ECCENTRICITY": 0.0004766, "INCLINATION": 97.6689, "RA_OF_ASC_NODE": 212.8577, "ARG_OF_PERICENTER": 326.2589, "MEAN_ANOMALY": 33.8323, "EPHEMERIS_TYPE": 0, "CLASSIFICATION_TYPE": "U", "NORAD_CAT_ID": 40715, "ELEMENT_SET_NO": 999, "REV_AT_EPOCH": 56206, "BSTAR": 0.00010019127, "MEAN_MOTION_DOT": 8.12e-06, "MEAN_MOTION_DDOT": 0}, "tle": {"line1": "1 40715U 15032A   25345.62462995  .00000812  00000+0  10019-3 0  9994", "line2": "2 40715  97.6689 212.8577 0004766 326.2589  33.8323 14.85436421562063"}}, "geometry": {"type": "Point", "coordinates": [-117.25360660614547, -74.73160615558395]}}, {"type": "Feature", "properties": {"norad_id": 40716, "name": "DMC3-FM2", "group": "dmc", "lat": 16.680365703711924, "lon": 36.92698586048448, "alt_km": 616.5219155281229, "timestamp": "2025-12-11T22:43:46.938461+00:00", "meta": {"OBJECT_NAME": "DMC3-FM2", "OBJECT_ID": "2015-032B", "EPOCH": "2025-12-11T13:54:51.869664", "MEAN_MOTION": 14.85436451, "ECCENTRICITY": 0.00054252, "INCLINATION": 97.6745, "RA_OF_ASC_NODE": 214.2573, "ARG_OF_PERICENTER": 330.1591, "MEAN_ANOMALY": 29.9315, "EPHEMERIS_TYPE": 0, "CLASSIFICATION_TYPE": "U", "NORAD_CAT_ID": 40716, "ELEMENT_SET_NO": 999, "REV_AT_EPOCH": 56205, "BSTAR": 0.00010948056, "MEAN_MOTION_DOT": 8.92e-06, "MEAN_MOTION_DDOT": 0}, "tle": {"line1": "1 40716U 15032B   25345.57976701  .00000892  00000+0  10948-3 0  9993", "line2": "2 40716  97.6745 214.2573 0005425 330.1591  29.9315 14.85436451562058"}}, "geometry": {"type": "Point", "coordinates": [36.92698586048448, 16.680365703711924]}}, {"type": "Feature", "properties": {"norad_id": 40717, "name": "DMC3-FM3", "group": "dmc", "lat": 46.96159052470222, "lon": -152.0651930964374, "alt_km": 607.3506000262687, "timestamp": "2025-12-11T22:43:46.938472+00:00", "meta": {"OBJECT_NAME": "DMC3-FM3", "OBJECT_ID": "2015-032C", "EPOCH": "2025-12-11T14:25:59.422944", "MEAN_MOTION": 14.85427565, "ECCENTRICITY": 0.00047146, "INCLINATION": 97.68, "RA_OF_ASC_NODE": 215.9104, "ARG_OF_PERICENTER": 332.366, "MEAN_ANOMALY": 27.7304, "EPHEMERIS_TYPE": 0, "CLASSIFICATION_TYPE": "U", "NORAD_CAT_ID": 40717, "ELEMENT_SET_NO": 999, "REV_AT_EPOCH": 56206, "BSTAR": 0.00014171932, "MEAN_MOTION_DOT": 1.17e-05, "MEAN_MOTION_DDOT": 0}, "tle": {"line1": "1 40717U 15032C   25345.60138221  .00001170  00000+0  14172-3 0  9998", "line2": "2 40717  97.6800 215.9104 0004714 332.3660  27.7304 14.85427565562061"}}, "geometry": {"type": "Point", "coordinates": [-152.0651930964374, 46.96159052470222]}}]}